CUTE-1 (CO-55)          
1 27844U 03031E   26201.26425805  .00000144  00000+0  81134-4 0  9994
2 27844  98.6745 209.4081 0010867  89.7034 270.5390 14.24353468196386
CUBESAT XI-IV (CO-57)   
1 27848U 03031J   26200.98821655  .00000102  00000+0  63799-4 0  9990
2 27848  98.6776 208.8216 0010677 106.9175 253.3176 14.23636063196042
CUBESAT XI-V            
1 28895U 05043F   26200.88003785  .00000644  00000+0  10905-3 0  9994
2 28895  98.3023 357.1961 0015361 101.5364 258.7568 14.72708978106569
CUTE-1.7+APD II (CO-65) 
1 32785U 08021C   26201.25822135  .00002186  00000+0  13974-3 0  9998
2 32785  97.8299 183.3757 0006838 278.2342  81.8111 15.09725222990180
CANX-2                  
1 32790U 08021H   26201.18310078  .00001577  00000+0  11320-3 0  9990
2 32790  97.8660 181.6112 0008621 298.0023  62.0330 15.05821601989773
SEEDS II (CO-66)        
1 32791U 08021J   26200.96172062  .00010451  00000+0  32252-3 0  9993
2 32791  97.7534 200.4527 0003605 146.3189 213.8283 15.33764303992311
SWISSCUBE               
1 35932U 09051B   26201.21360368  .00000497  00000+0  10766-3 0  9999
2 35932  98.4002 109.6735 0008034 105.6957 254.5131 14.62536206893989
BEESAT-1                
1 35933U 09051C   26201.03497458  .00000365  00000+0  82915-4 0  9991
2 35933  98.3928 109.0582 0006364 117.2865 242.8984 14.61766071893981
ITUPSAT1                
1 35935U 09051E   26200.71211911  .00000317  00000+0  75448-4 0  9995
2 35935  98.4013 107.8874 0008343 130.5839 229.6089 14.60482308893488
TISAT 1                 
1 36799U 10035E   26201.29044306  .00011953  00000+0  37924-3 0  9998
2 36799  98.0712 150.8103 0004745 109.9522 250.2230 15.32850043872775
STRAND-1                
1 39090U 13009E   26201.05652889  .00000131  00000+0  58228-4 0  9991
2 39090  98.3939  20.4846 0009631 128.0148 232.1910 14.37180574701782
BRITE-AUSTRIA           
1 39091U 13009F   26201.29263326  .00000073  00000+0  39363-4 0  9996
2 39091  98.4013  19.9118 0011026 136.5518 223.6539 14.36553675701808
NEE-01 PEGASO           
1 39151U 13018B   26200.88835855  .00001496  00000+0  14668-3 0  9999
2 39151  98.1265 346.1295 0013564  60.4464 299.8105 14.93802517715585
POPACS 2                
1 39269U 13055E   26201.18040982  .00014527 -92592-6  23629-3 0  9994
2 39269  80.9906 106.4097 0414533  87.8948 276.9668 14.92158124668139
POPACS 3                
1 39270U 13055F   26201.30018554  .00007300  00000+0  17383-3 0  9996
2 39270  81.0011 193.2626 0548110 329.0952  27.9008 14.56740646643374
ZACUBE-1 (TSHEPISOSAT)  
1 39417U 13066B   26201.13332903  .00001349  00000+0  10754-3 0  9991
2 39417  97.8001 163.6305 0044083 139.3685 221.0842 15.01342161685674
WNISAT-1                
1 39423U 13066H   26201.21968887  .00000615  00000+0  11943-3 0  9999
2 39423  97.7243 348.0381 0164129 127.5875 234.0359 14.58126539671543
TRITON-1                
1 39427U 13066M   26201.18237169  .00001320  00000+0  16220-3 0  9998
2 39427  97.8215 110.2348 0090950 126.0342 234.9343 14.81806804678974
GOMX-1                  
1 39430U 13066Q   26201.27786745  .00000571  00000+0  92833-4 0  9993
2 39430  97.6464  39.6520 0127810 331.8507  27.5830 14.69548977674774
CUBEBUG-2 (LO-74)       
1 39440U 13066AA  26201.28541108  .00001943  00000+0  18271-3 0  9994
2 39440  97.8921 150.4123 0055528 278.1054  81.3869 14.93988121681934
NEE-02 KRYSAOR          
1 39441U 13066AB  26200.78446884  .00000992  00000+0  11373-3 0  9993
2 39441  97.8895 139.7708 0065013 324.0850  35.6003 14.86749402681042
FUNCUBE-1 (AO-73)       
1 39444U 13066AE  26201.19691769  .00004467  00000+0  27558-3 0  9999
2 39444  97.8301 173.3445 0038051  91.4197 269.1391 15.09859978684649
UWE-3                   
1 39446U 13066AG  26200.83144104  .00002164  00000+0  18817-3 0  9997
2 39446  97.8723 157.1335 0047670 208.5998 151.2608 14.97218739682464
BRITE-CA1 (TORONTO)     
1 40020U 14033L   26201.19433953  .00000588  00000+0  95700-4 0  9990
2 40020  97.9777 329.5212 0078858 170.2786 189.9970 14.72728582647078
DUCHIFAT-1              
1 40021U 14033M   26201.13688782  .00099013  00000+0  75275-3 0  9992
2 40021  98.0410 265.1222 0003429 227.9853 132.1117 15.71988484660918
NANOSATC-BR1            
1 40024U 14033Q   26201.05966085  .00009772  00000+0  31482-3 0  9996
2 40024  98.0707 236.3841 0005139  85.0134 275.1692 15.32422309659013
QB50P1                  
1 40025U 14033R   26201.03202993  .00004346  00000+0  21292-3 0  9996
2 40025  98.0972 214.4928 0010513 110.5893 249.6468 15.18708867658015
QB50P2                  
1 40032U 14033Y   26200.98401997  .00003453  00000+0  18594-3 0  9991
2 40032  98.0770 199.9180 0009191  70.5042 289.7181 15.15543519657639
PERSEUS-M2              
1 40037U 14033AD  26201.31537791  .00000001  00000+0  56177-5 0  9993
2 40037  97.9984 152.5363 0011316 182.7874 177.3285 14.95592195655735
PERSEUS-M1              
1 40039U 14033AF  26201.28565042  .00000454  00000+0  46155-4 0  9997
2 40039  97.9654 145.9652 0011282 179.7066 180.4162 14.95724785655583
