OBJECT_NAME,OBJECT_ID,EPOCH,MEAN_MOTION,ECCENTRICITY,INCLINATION,RA_OF_ASC_NODE,ARG_OF_PERICENTER,MEAN_ANOMALY,EPHEMERIS_TYPE,CLASSIFICATION_TYPE,NORAD_CAT_ID,ELEMENT_SET_NO,REV_AT_EPOCH,BSTAR,MEAN_MOTION_DOT,MEAN_MOTION_DDOT
CUTE-1 (CO-55),2003-031E,2026-07-20T06:20:31.895520,14.24353468,.00108679,98.6745,209.4081,89.7034,270.5390,0,U,27844,999,19638,.81134159E-4,.144E-5,0
CUBESAT XI-IV (CO-57),2003-031J,2026-07-19T23:43:01.909920,14.23636063,.00106776,98.6776,208.8216,106.9175,253.3176,0,U,27848,999,19604,.63799349E-4,.102E-5,0
CUBESAT XI-V,2005-043F,2026-07-19T21:07:15.270240,14.72708978,.00153617,98.3023,357.1961,101.5364,258.7568,0,U,28895,999,10656,.10904697E-3,.644E-5,0
CUTE-1.7+APD II (CO-65),2008-021C,2026-07-20T06:11:50.324640,15.09725222,.0006838,97.8299,183.3757,278.2342,81.8111,0,U,32785,999,99018,.13974464E-3,.2186E-4,0
CANX-2,2008-021H,2026-07-20T04:23:39.907392,15.05821601,.00086214,97.8660,181.6112,298.0023,62.0330,0,U,32790,999,98977,.11319875E-3,.1577E-4,0
SEEDS II (CO-66),2008-021J,2026-07-19T23:04:52.661568,15.33764303,.00036055,97.7534,200.4527,146.3189,213.8283,0,U,32791,999,99231,.32252109E-3,.10451E-3,0
SWISSCUBE,2009-051B,2026-07-20T05:07:35.357952,14.62536206,.00080341,98.4002,109.6735,105.6957,254.5131,0,U,35932,999,89398,.10766024E-3,.497E-5,0
BEESAT-1,2009-051C,2026-07-20T00:50:21.803712,14.61766071,.00063649,98.3928,109.0582,117.2865,242.8984,0,U,35933,999,89398,.82915153E-4,.365E-5,0
ITUPSAT1,2009-051E,2026-07-19T17:05:27.091104,14.60482308,.00083432,98.4013,107.8874,130.5839,229.6089,0,U,35935,999,89348,.75447886E-4,.317E-5,0
TISAT 1,2010-035E,2026-07-20T06:58:14.280384,15.32850043,.00047453,98.0712,150.8103,109.9522,250.2230,0,U,36799,999,87277,.37923857E-3,.11953E-3,0
STRAND-1,2013-009E,2026-07-20T01:21:24.096096,14.37180574,.00096317,98.3939,20.4846,128.0148,232.1910,0,U,39090,999,70178,.58228199E-4,.131E-5,0
BRITE-AUSTRIA,2013-009F,2026-07-20T07:01:23.513664,14.36553675,.00110267,98.4013,19.9118,136.5518,223.6539,0,U,39091,999,70180,.39363249E-4,.73E-6,0
NEE-01 PEGASO,2013-018B,2026-07-19T21:19:14.178720,14.93802517,.00135647,98.1265,346.1295,60.4464,299.8105,0,U,39151,999,71558,.14667651E-3,.1496E-4,0
POPACS 2,2013-055E,2026-07-20T04:19:47.408448,14.92158124,.0414533,80.9906,106.4097,87.8948,276.9668,0,U,39269,999,66813,.2362949E-3,.14527E-3,-.925916E-6
POPACS 3,2013-055F,2026-07-20T07:12:16.030656,14.56740646,.05481109,81.0011,193.2626,329.0952,27.9008,0,U,39270,999,64337,.17382861E-3,.73E-4,0
ZACUBE-1 (TSHEPISOSAT),2013-066B,2026-07-20T03:11:59.628192,15.01342161,.00440838,97.8001,163.6305,139.3685,221.0842,0,U,39417,999,68567,.10754441E-3,.1349E-4,0
WNISAT-1,2013-066H,2026-07-20T05:16:21.118368,14.58126539,.01641298,97.7243,348.0381,127.5875,234.0359,0,U,39423,999,67154,.11943369E-3,.615E-5,0
TRITON-1,2013-066M,2026-07-20T04:22:36.914016,14.81806804,.00909503,97.8215,110.2348,126.0342,234.9343,0,U,39427,999,67897,.16220414E-3,.132E-4,0
GOMX-1,2013-066Q,2026-07-20T06:40:07.747680,14.69548977,.01278108,97.6464,39.6520,331.8507,27.5830,0,U,39430,999,67477,.92833247E-4,.571E-5,0
CUBEBUG-2 (LO-74),2013-066AA,2026-07-20T06:50:59.517312,14.93988121,.00555286,97.8921,150.4123,278.1054,81.3869,0,U,39440,999,68193,.18271022E-3,.1943E-4,0
NEE-02 KRYSAOR,2013-066AB,2026-07-19T18:49:38.107776,14.86749402,.0065013,97.8895,139.7708,324.0850,35.6003,0,U,39441,999,68104,.11372906E-3,.992E-5,0
FUNCUBE-1 (AO-73),2013-066AE,2026-07-20T04:43:33.688416,15.09859978,.00380511,97.8301,173.3445,91.4197,269.1391,0,U,39444,999,68464,.27557525E-3,.4467E-4,0
UWE-3,2013-066AG,2026-07-19T19:57:16.505856,14.97218739,.00476702,97.8723,157.1335,208.5998,151.2608,0,U,39446,999,68246,.18817093E-3,.2164E-4,0
BRITE-CA1 (TORONTO),2014-033L,2026-07-20T04:39:50.935392,14.72728582,.00788587,97.9777,329.5212,170.2786,189.9970,0,U,40020,999,64707,.95700116E-4,.588E-5,0
DUCHIFAT-1,2014-033M,2026-07-20T03:17:07.107648,15.71988484,.00034299,98.0410,265.1222,227.9853,132.1117,0,U,40021,999,66091,.75274714E-3,.99013E-3,0
NANOSATC-BR1,2014-033Q,2026-07-20T01:25:54.697440,15.32422309,.00051396,98.0707,236.3841,85.0134,275.1692,0,U,40024,999,65901,.31481997E-3,.9772E-4,0
QB50P1,2014-033R,2026-07-20T00:46:07.385952,15.18708867,.00105133,98.0972,214.4928,110.5893,249.6468,0,U,40025,999,65801,.21291718E-3,.4346E-4,0
QB50P2,2014-033Y,2026-07-19T23:36:59.325408,15.15543519,.00091918,98.0770,199.9180,70.5042,289.7181,0,U,40032,999,65763,.1859428E-3,.3453E-4,0
PERSEUS-M2,2014-033AD,2026-07-20T07:34:08.651424,14.95592195,.00113162,97.9984,152.5363,182.7874,177.3285,0,U,40037,999,65573,.5617687E-5,.1E-7,0
PERSEUS-M1,2014-033AF,2026-07-20T06:51:20.196288,14.95724785,.0011282,97.9654,145.9652,179.7066,180.4162,0,U,40039,999,65558,.46155435E-4,.454E-5,0
